EUTELSAT QUANTUM        
1 49056U 21069B   26022.51475387  .00000141  00000+0  00000+0 0  9998
2 49056   0.0086  19.8730 0003280 283.6621  51.3288  1.00272277 16461
EUTELSAT KONNECT VHTS   
1 53765U 22110A   26022.64848132  .00000031  00000+0  00000+0 0  9992
2 53765   0.0578  98.7800 0003064 174.3615  84.9987  1.00267685  5375
EUTELSAT HOTBIRD 13F    
1 54048U 22134A   26022.86443992  .00000101  00000+0  00000+0 0  9990
2 54048   0.0582 279.1191 0002075  83.3101  83.9553  1.00270341 11922
EUTELSAT HOTBIRD 13G    
1 54225U 22146A   26022.86443992  .00000101  00000+0  00000+0 0  9990
2 54225   0.0534 245.9919 0002021 295.7130 264.6844  1.00269724  6004
EUTELSAT 10B            
1 54259U 22157A   26022.86391992  .00000084  00000+0  00000+0 0  9991
2 54259   0.0573  97.8581 0000338   5.7638 339.6070  1.00277550 11561
EUTELSAT 36D            
1 59346U 24059A   26022.87058605  .00000170  00000+0  00000+0 0  9994
2 59346   0.0179  71.7833 0000171 243.2824 156.4037  1.00271912  6699
